CCSDS_OMM_VERS = 2.0
CREATION_DATE  = 
ORIGINATOR     = 

OBJECT_NAME    = COSMOS 2151
OBJECT_ID      = 1991-042A
CENTER_NAME    = EARTH
REF_FRAME      = TEME
TIME_SYSTEM    = UTC
MEAN_ELEMENT_THEORY = SGP/SGP4

EPOCH          = 2025-12-01T19:32:07.725984
MEAN_MOTION    = 14.99621573
ECCENTRICITY   = .0013473
INCLINATION    = 82.4964
RA_OF_ASC_NODE = 178.0313
ARG_OF_PERICENTER = 35.5771
MEAN_ANOMALY   = 324.6348

EPHEMERIS_TYPE = 0
CLASSIFICATION_TYPE = U
NORAD_CAT_ID   = 21422
ELEMENT_SET_NO = 999
REV_AT_EPOCH   = 84852
BSTAR          = .1222E-3
MEAN_MOTION_DOT = .1533E-4
MEAN_MOTION_DDOT = 0

CCSDS_OMM_VERS = 2.0
CREATION_DATE  = 
ORIGINATOR     = 

OBJECT_NAME    = SL-14 R/B
OBJECT_ID      = 1991-042B
CENTER_NAME    = EARTH
REF_FRAME      = TEME
TIME_SYSTEM    = UTC
MEAN_ELEMENT_THEORY = SGP/SGP4

EPOCH          = 2025-12-01T10:29:08.164320
MEAN_MOTION    = 14.81721742
ECCENTRICITY   = .0016449
INCLINATION    = 82.4918
RA_OF_ASC_NODE = 312.3232
ARG_OF_PERICENTER = 199.0369
MEAN_ANOMALY   = 161.0233

EPHEMERIS_TYPE = 0
CLASSIFICATION_TYPE = U
NORAD_CAT_ID   = 21423
ELEMENT_SET_NO = 999
REV_AT_EPOCH   = 83852
BSTAR          = .68749E-4
MEAN_MOTION_DOT = .566E-5
MEAN_MOTION_DDOT = 0

CCSDS_OMM_VERS = 2.0
CREATION_DATE  = 
ORIGINATOR     = 

OBJECT_NAME    = ERS-1
OBJECT_ID      = 1991-050A
CENTER_NAME    = EARTH
REF_FRAME      = TEME
TIME_SYSTEM    = UTC
MEAN_ELEMENT_THEORY = SGP/SGP4

EPOCH          = 2025-12-01T14:44:49.967808
MEAN_MOTION    = 14.39350575
ECCENTRICITY   = .0032764
INCLINATION    = 98.7912
RA_OF_ASC_NODE = 346.3909
ARG_OF_PERICENTER = 132.0786
MEAN_ANOMALY   = 228.3196

EPHEMERIS_TYPE = 0
CLASSIFICATION_TYPE = U
NORAD_CAT_ID   = 21574
ELEMENT_SET_NO = 999
REV_AT_EPOCH   = 80162
BSTAR          = .13553E-3
MEAN_MOTION_DOT = .378E-5
MEAN_MOTION_DDOT = 0

CCSDS_OMM_VERS = 2.0
CREATION_DATE  = 
ORIGINATOR     = 

OBJECT_NAME    = ARIANE 40 R/B
OBJECT_ID      = 1991-050F
CENTER_NAME    = EARTH
REF_FRAME      = TEME
TIME_SYSTEM    = UTC
MEAN_ELEMENT_THEORY = SGP/SGP4

EPOCH          = 2025-12-01T18:14:12.276384
MEAN_MOTION    = 14.42797835
ECCENTRICITY   = .0003456
INCLINATION    = 98.2181
RA_OF_ASC_NODE = 26.5859
ARG_OF_PERICENTER = 31.1308
MEAN_ANOMALY   = 329.0086

EPHEMERIS_TYPE = 0
CLASSIFICATION_TYPE = U
NORAD_CAT_ID   = 21610
ELEMENT_SET_NO = 999
REV_AT_EPOCH   = 80487
BSTAR          = .13023E-3
MEAN_MOTION_DOT = .392E-5
MEAN_MOTION_DDOT = 0

CCSDS_OMM_VERS = 2.0
CREATION_DATE  = 
ORIGINATOR     = 

OBJECT_NAME    = INTERCOSMOS 25
OBJECT_ID      = 1991-086A
CENTER_NAME    = EARTH
REF_FRAME      = TEME
TIME_SYSTEM    = UTC
MEAN_ELEMENT_THEORY = SGP/SGP4

EPOCH          = 2025-12-01T19:40:38.733600
MEAN_MOTION    = 12.11664465
ECCENTRICITY   = .148716
INCLINATION    = 82.6068
RA_OF_ASC_NODE = 9.1797
ARG_OF_PERICENTER = 327.9545
MEAN_ANOMALY   = 23.8896

EPHEMERIS_TYPE = 0
CLASSIFICATION_TYPE = U
NORAD_CAT_ID   = 21819
ELEMENT_SET_NO = 999
REV_AT_EPOCH   = 48483
BSTAR          = .50306E-3
MEAN_MOTION_DOT = .2539E-4
MEAN_MOTION_DDOT = 0

CCSDS_OMM_VERS = 2.0
CREATION_DATE  = 
ORIGINATOR     = 

OBJECT_NAME    = SL-8 R/B
OBJECT_ID      = 1992-008B
CENTER_NAME    = EARTH
REF_FRAME      = TEME
TIME_SYSTEM    = UTC
MEAN_ELEMENT_THEORY = SGP/SGP4

EPOCH          = 2025-12-01T19:03:48.092832
MEAN_MOTION    = 13.75955318
ECCENTRICITY   = .0035752
INCLINATION    = 82.9263
RA_OF_ASC_NODE = 340.5888
ARG_OF_PERICENTER = 49.7253
MEAN_ANOMALY   = 123.3990

EPHEMERIS_TYPE = 0
CLASSIFICATION_TYPE = U
NORAD_CAT_ID   = 21876
ELEMENT_SET_NO = 999
REV_AT_EPOCH   = 69595
BSTAR          = .15822E-3
MEAN_MOTION_DOT = .169E-5
MEAN_MOTION_DDOT = 0

CCSDS_OMM_VERS = 2.0
CREATION_DATE  = 
ORIGINATOR     = 

OBJECT_NAME    = SL-8 R/B
OBJECT_ID      = 1992-020B
CENTER_NAME    = EARTH
REF_FRAME      = TEME
TIME_SYSTEM    = UTC
MEAN_ELEMENT_THEORY = SGP/SGP4

EPOCH          = 2025-12-01T18:50:51.832032
MEAN_MOTION    = 13.75524583
ECCENTRICITY   = .0028218
INCLINATION    = 82.9314
RA_OF_ASC_NODE = 226.4511
ARG_OF_PERICENTER = 209.1553
MEAN_ANOMALY   = 216.3534

EPHEMERIS_TYPE = 0
CLASSIFICATION_TYPE = U
NORAD_CAT_ID   = 21938
ELEMENT_SET_NO = 999
REV_AT_EPOCH   = 68767
BSTAR          = .54078E-4
MEAN_MOTION_DOT = .67E-6
MEAN_MOTION_DDOT = 0

CCSDS_OMM_VERS = 2.0
CREATION_DATE  = 
ORIGINATOR     = 

OBJECT_NAME    = USA 81
OBJECT_ID      = 1992-023A
CENTER_NAME    = EARTH
REF_FRAME      = TEME
TIME_SYSTEM    = UTC
MEAN_ELEMENT_THEORY = SGP/SGP4

EPOCH          = 2025-12-01T20:33:17.691264
MEAN_MOTION    = 14.32320438
ECCENTRICITY   = .0001898
INCLINATION    = 85.0089
RA_OF_ASC_NODE = 187.8524
ARG_OF_PERICENTER = 63.0990
MEAN_ANOMALY   = 297.0396

EPHEMERIS_TYPE = 0
CLASSIFICATION_TYPE = U
NORAD_CAT_ID   = 21949
ELEMENT_SET_NO = 999
REV_AT_EPOCH   = 8078
BSTAR          = .69427E-4
MEAN_MOTION_DOT = .207E-5
MEAN_MOTION_DDOT = 0

CCSDS_OMM_VERS = 2.0
CREATION_DATE  = 
ORIGINATOR     = 

OBJECT_NAME    = COSMOS 2219
OBJECT_ID      = 1992-076A
CENTER_NAME    = EARTH
REF_FRAME      = TEME
TIME_SYSTEM    = UTC
MEAN_ELEMENT_THEORY = SGP/SGP4

EPOCH          = 2025-12-01T19:56:17.428128
MEAN_MOTION    = 14.14064333
ECCENTRICITY   = .0018805
INCLINATION    = 71.0595
RA_OF_ASC_NODE = 222.6362
ARG_OF_PERICENTER = 341.9169
MEAN_ANOMALY   = 18.1282

EPHEMERIS_TYPE = 0
CLASSIFICATION_TYPE = U
NORAD_CAT_ID   = 22219
ELEMENT_SET_NO = 999
REV_AT_EPOCH   = 70454
BSTAR          = -.10939E-3
MEAN_MOTION_DOT = -.256E-5
MEAN_MOTION_DDOT = 0

CCSDS_OMM_VERS = 2.0
CREATION_DATE  = 
ORIGINATOR     = 

OBJECT_NAME    = SL-16 R/B
OBJECT_ID      = 1992-076B
CENTER_NAME    = EARTH
REF_FRAME      = TEME
TIME_SYSTEM    = UTC
MEAN_ELEMENT_THEORY = SGP/SGP4

EPOCH          = 2025-12-01T15:26:23.540064
MEAN_MOTION    = 14.16840642
ECCENTRICITY   = .0015071
INCLINATION    = 71.0017
RA_OF_ASC_NODE = 34.9063
ARG_OF_PERICENTER = 248.7821
MEAN_ANOMALY   = 225.6070

EPHEMERIS_TYPE = 0
CLASSIFICATION_TYPE = U
NORAD_CAT_ID   = 22220
ELEMENT_SET_NO = 999
REV_AT_EPOCH   = 70794
BSTAR          = .84843E-4
MEAN_MOTION_DOT = .122E-5
MEAN_MOTION_DDOT = 0

CCSDS_OMM_VERS = 2.0
CREATION_DATE  = 
ORIGINATOR     = 

OBJECT_NAME    = COSMOS 2221
OBJECT_ID      = 1992-080A
CENTER_NAME    = EARTH
REF_FRAME      = TEME
TIME_SYSTEM    = UTC
MEAN_ELEMENT_THEORY = SGP/SGP4

EPOCH          = 2025-12-01T13:53:31.382016
MEAN_MOTION    = 14.95691994
ECCENTRICITY   = .0015256
INCLINATION    = 82.5054
RA_OF_ASC_NODE = 13.0080
ARG_OF_PERICENTER = 156.7091
MEAN_ANOMALY   = 203.4825

EPHEMERIS_TYPE = 0
CLASSIFICATION_TYPE = U
NORAD_CAT_ID   = 22236
ELEMENT_SET_NO = 999
REV_AT_EPOCH   = 76612
BSTAR          = .20089E-3
MEAN_MOTION_DOT = .2265E-4
MEAN_MOTION_DDOT = 0

CCSDS_OMM_VERS = 2.0
CREATION_DATE  = 
ORIGINATOR     = 

OBJECT_NAME    = SL-16 R/B
OBJECT_ID      = 1992-093B
CENTER_NAME    = EARTH
REF_FRAME      = TEME
TIME_SYSTEM    = UTC
MEAN_ELEMENT_THEORY = SGP/SGP4

EPOCH          = 2025-12-01T18:57:40.574016
MEAN_MOTION    = 14.15425730
ECCENTRICITY   = .0001946
INCLINATION    = 71.0202
RA_OF_ASC_NODE = 209.7807
ARG_OF_PERICENTER = 105.5487
MEAN_ANOMALY   = 254.5851

EPHEMERIS_TYPE = 0
CLASSIFICATION_TYPE = U
NORAD_CAT_ID   = 22285
ELEMENT_SET_NO = 999
REV_AT_EPOCH   = 69930
BSTAR          = -.73742E-4
MEAN_MOTION_DOT = -.191E-5
MEAN_MOTION_DDOT = 0

