COSMOS 2151             
1 21422U 91042A   25335.81397831  .00001533  00000+0  12220-3 0  9996
2 21422  82.4964 178.0313 0013473  35.5771 324.6348 14.99621573848529
SL-14 R/B               
1 21423U 91042B   25335.43690005  .00000566  00000+0  68749-4 0  9997
2 21423  82.4918 312.3232 0016449 199.0369 161.0233 14.81721742838522
ERS-1                   
1 21574U 91050A   25335.61446722  .00000378  00000+0  13553-3 0  9991
2 21574  98.7912 346.3909 0032764 132.0786 228.3196 14.39350575801620
ARIANE 40 R/B           
1 21610U 91050F   25335.75986431  .00000392  00000+0  13023-3 0  9991
2 21610  98.2181  26.5859 0003456  31.1308 329.0086 14.42797835804875
INTERCOSMOS 25          
1 21819U 91086A   25335.81989275  .00002539  00000+0  50306-3 0  9997
2 21819  82.6068   9.1797 1487160 327.9545  23.8896 12.11664465484837
SL-8 R/B                
1 21876U 92008B   25335.79430663  .00000169  00000+0  15822-3 0  9995
2 21876  82.9263 340.5888 0035752  49.7253 123.3990 13.75955318695952
SL-8 R/B                
1 21938U 92020B   25335.78532213  .00000067  00000+0  54078-4 0  9995
2 21938  82.9314 226.4511 0028218 209.1553 216.3534 13.75524583687670
USA 81                  
1 21949U 92023A   25335.85645476  .00000207  00000+0  69427-4 0  9994
2 21949  85.0089 187.8524 0001898  63.0990 297.0396 14.32320438 80784
COSMOS 2219             
1 22219U 92076A   25335.83075727 -.00000256  00000+0 -10939-3 0  9996
2 22219  71.0595 222.6362 0018805 341.9169  18.1282 14.14064333704544
SL-16 R/B               
1 22220U 92076B   25335.64332801  .00000122  00000+0  84843-4 0  9992
2 22220  71.0017  34.9063 0015071 248.7821 225.6070 14.16840642707942
COSMOS 2221             
1 22236U 92080A   25335.57883544  .00002265  00000+0  20089-3 0  9992
2 22236  82.5054  13.0080 0015256 156.7091 203.4825 14.95691994766124
SL-16 R/B               
1 22285U 92093B   25335.79005294 -.00000191  00000+0 -73742-4 0  9995
2 22285  71.0202 209.7807 0001946 105.5487 254.5851 14.15425730699305
